ONEWEB-0233             
1 48795U 21045AE  24154.94140263  .00000041  00000+0  76040-4 0  9995
2 48795  87.9054  47.3459 0001972  85.9350 274.2006 13.15546557146441
ONEWEB-0190             
1 48796U 21045AF  24155.16562437  .00000127  00000+0  30274-3 0  9995
2 48796  87.9056  47.2648 0002816  90.9728 269.1725 13.15547838147665
ONEWEB-0236             
1 48797U 21045AG  24155.41122357 -.00000023  00000+0 -95286-4 0  9999
2 48797  87.9060  47.2091 0002037  78.2733 281.8626 13.15547742147589
ONEWEB-0248             
1 48798U 21045AH  24154.96755584 -.00000021  00000+0 -90182-4 0  9991
2 48798  87.9051  47.2894 0002689  76.2680 283.8750 13.15547237146569
ONEWEB-0225             
1 48799U 21045AJ  24155.21791080  .00000188  00000+0  46539-3 0  9990
2 48799  87.9053  47.2511 0002348  84.0896 276.0502 13.15547661147747
ONEWEB-0215             
1 48800U 21045AK  24154.95962922 -.00000106  00000+0 -31444-3 0  9999
2 48800  87.9048  47.2771 0002825  82.7948 277.3503 13.15546785146442
ONEWEB-0216             
1 48801U 21045AL  24155.19730333 -.00000004  00000+0 -45657-4 0  9995
2 48801  87.9048  47.2707 0001911  90.0166 270.1183 13.15546934147601
ONEWEB-0239             
1 48802U 21045AM  24155.20206802  .00000023  00000+0  28238-4 0  9992
2 48802  87.9058  47.2443 0002870  76.7895 283.3555 13.15547634147668
